NORAD_CAT_ID,OBJECT_NAME,OBJECT_TYPE,EPOCH,MEAN_MOTION,ECCENTRICITY,INCLINATION,RA_OF_ASC_NODE,ARG_OF_PERICENTER,MEAN_ANOMALY,BSTAR,MEAN_MOTION_DOT,MEAN_MOTION_DDOT,TLE_LINE0,TLE_LINE1,TLE_LINE2,SEMIMAJOR_AXIS,PERIOD,APOGEE,PERIGEE,DECAYED
51891.0,STARLINK-3549,PAYLOAD,2022-04-16 22:00:01,15.73103633,0.0001567,53.2128,284.848,60.5474,186.3003,0.000884,0.00124786,0.0,0 STARLINK-3549,1 51891U 22022AR  22106.91668981  .00124786  00000-0  88400-3 0  9992,2 51891  53.2128 284.8480 0001567  60.5474 186.3003 15.73103633  3697,6728.17,91.539,351.089,348.981,0.0
51891.0,STARLINK-3549,PAYLOAD,2022-04-17 06:00:00,15.73177386,0.0001375,53.2125,283.1964,67.2071,268.4452,0.00044596,0.00062373,0.0,0 STARLINK-3549,1 51891U 22022AR  22107.25001157  .00062373  00000-0  44596-3 0  9997,2 51891  53.2125 283.1964 0001375  67.2071 268.4452 15.73177386  8294,6727.96,91.534,350.75,348.9,0.0
51891.0,STARLINK-3549,PAYLOAD,2022-04-17 14:00:01,15.73239341,0.0001356,53.2129,281.5469,66.816,357.7474,0.0001778,0.00024447,0.0,0 STARLINK-3549,1 51891U 22022AR  22107.58334491  .00024447  00000-0  17780-3 0  9998,2 51891  53.2129 281.5469 0001356  66.8160 357.7474 15.73239341  3700,6727.783,91.531,350.56,348.736,0.0
51891.0,STARLINK-3549,PAYLOAD,2022-04-17 22:00:00,15.73248696,0.0001381,53.2131,279.8989,52.6449,100.9102,-0.0002062,-0.00029518,0.0,0 STARLINK-3549,1 51891U 22022AR  22107.91667824 -.00029518  00000-0 -20620-3 0  9997,2 51891  53.2131 279.8989 0001381  52.6449 100.9102 15.73248696  3698,6727.755999999999,91.53,350.55,348.69199999999995,0.0
51891.0,STARLINK-3549,PAYLOAD,2022-04-18 06:00:00,15.73177711,0.0001314,53.2134,278.247,57.1865,185.3525,0.00041431,0.00057872,0.0,0 STARLINK-3549,1 51891U 22022AR  22108.25001157  .00057872  00000-0  41431-3 0  9991,2 51891  53.2134 278.2470 0001314  57.1865 185.3525 15.73177711  8451,6727.959,91.534,350.708,348.94,0.0
51891.0,STARLINK-3549,PAYLOAD,2022-04-18 14:00:01,15.73272884,0.0001336,53.2133,276.5978,57.2078,274.2469,-0.00054141,-0.00076156,0.0,0 STARLINK-3549,1 51891U 22022AR  22108.58334491 -.00076156  00000-0 -54141-3 0  9997,2 51891  53.2133 276.5978 0001336  57.2078 274.2469 15.73272884  3700,6727.687,91.529,350.451,348.654,0.0
51891.0,STARLINK-3549,PAYLOAD,2022-04-18 20:00:01,15.73224805,0.0001509,53.2131,275.3619,50.3216,257.8841,-0.00035683,-0.00050454,0.0,0 STARLINK-3549,1 51891U 22022AR  22108.83334491 -.00050454  00000-0 -35683-3 0  9998,2 51891  53.2131 275.3619 0001509  50.3216 257.8841 15.73224805  8545,6727.824000000001,91.532,350.705,348.6740000000001,0.0
51891.0,STARLINK-3549,PAYLOAD,2022-04-18 22:00:00,15.73193176,0.0001484,53.2128,274.9495,47.9359,12.5148,3.6501e-05,4.504e-05,0.0,0 STARLINK-3549,1 51891U 22022AR  22108.91667824  .00004504  00000-0  36501-4 0  9990,2 51891  53.2128 274.9495 0001484  47.9359  12.5148 15.73193176  3705,6727.915,91.534,350.778,348.781,0.0
51891.0,STARLINK-3549,PAYLOAD,2022-04-19 06:00:00,15.73174968,0.0001305,53.2128,273.2979,55.1241,94.2587,0.00065705,0.00092514,0.0,0 STARLINK-3549,1 51891U 22022AR  22109.25001157  .00092514  00000-0  65705-3 0  9994,2 51891  53.2128 273.2979 0001305  55.1241  94.2587 15.73174968  8603,6727.967,91.535,350.71,348.954,0.0
51891.0,STARLINK-3549,PAYLOAD,2022-04-19 14:00:01,15.73273217,0.0001311,53.2132,271.649,54.1656,184.1284,-0.00061527,-0.00086357,0.0,0 STARLINK-3549,1 51891U 22022AR  22109.58334491 -.00086357  00000-0 -61527-3 0  9998,2 51891  53.2132 271.6490 0001311  54.1656 184.1284 15.73273217  3700,6727.686,91.529,350.43300000000005,348.6690000000001,0.0
51891.0,STARLINK-3549,PAYLOAD,2022-04-20 06:00:00,15.73195561,0.0001291,53.2134,268.349,46.8682,9.332,-0.00017295,-0.00024816,0.0,0 STARLINK-3549,1 51891U 22022AR  22110.25001157 -.00024816  00000-0 -17295-3 0  9999,2 51891  53.2134 268.3490 0001291  46.8682   9.3320 15.73195561  8764,6727.908,91.533,350.641,348.904,0.0
51891.0,STARLINK-3549,PAYLOAD,2022-04-20 14:00:01,15.73187385,0.0001398,53.2134,266.7002,44.1224,100.9925,-7.3115e-05,-0.00010862,0.0,0 STARLINK-3549,1 51891U 22022AR  22110.58334491 -.00010862  00000-0 -73115-4 0  9995,2 51891  53.2134 266.7002 0001398  44.1224 100.9925 15.73187385  3697,6727.931,91.534,350.737,348.856,0.0
51891.0,STARLINK-3549,PAYLOAD,2022-04-20 22:00:00,15.73168961,0.0001636999999999,53.2127,265.0518,38.3729,195.6853,0.00040015,0.00055839,0.0,0 STARLINK-3549,1 51891U 22022AR  22110.91667824  .00055839  00000-0  40015-3 0  9994,2 51891  53.2127 265.0518 0001637  38.3729 195.6853 15.73168961  8879,6727.984,91.535,350.95,348.747,0.0
51891.0,STARLINK-3549,PAYLOAD,2022-04-21 06:00:00,15.72914045,0.0001463,53.216,263.3872,44.549,278.4168,0.0027437,0.00398391,0.0,0 STARLINK-3549,1 51891U 22022AR  22111.25001157  .00398391  00000-0  27437-2 0  9998,2 51891  53.2160 263.3872 0001463  44.5490 278.4168 15.72914045  8927,6728.7109999999975,91.55,351.56,349.591,0.0
51891.0,STARLINK-3549,PAYLOAD,2022-04-21 14:00:01,15.7320861,0.0001647,53.2129,261.7518,48.3689,3.5268,-7.598300000000001e-05,-0.00011274,0.0,0 STARLINK-3549,1 51891U 22022AR  22111.58334491 -.00011274  00000-0 -75983-4 0  9999,2 51891  53.2129 261.7518 0001647  48.3689   3.5268 15.73208610  3701,6727.871,91.533,350.844,348.62800000000016,0.0
51891.0,STARLINK-3549,PAYLOAD,2022-04-21 22:00:00,15.73210199,0.0001747,53.2127,260.1032,38.6784,102.1776,0.0001825,0.0002508,0.0,0 STARLINK-3549,1 51891U 22022AR  22111.91667824  .00025080  00000-0  18250-3 0  9996,2 51891  53.2127 260.1032 0001747  38.6784 102.1776 15.73210199  3718,6727.866,91.533,350.906,348.556,0.0
51891.0,STARLINK-3549,PAYLOAD,2022-04-22 14:00:01,15.73259856,0.0001729,53.2129,256.8029,39.9065,278.8586,-0.00080057,-0.00111787,0.0,0 STARLINK-3549,1 51891U 22022AR  22112.58334491 -.00111787  00000-0 -80057-3 0  9997,2 51891  53.2129 256.8029 0001729  39.9065 278.8586 15.73259856  3717,6727.725,91.53,350.75300000000016,348.426,0.0
51891.0,STARLINK-3549,PAYLOAD,2022-04-22 22:00:00,15.73175323,0.0001824,53.2122,255.1541,30.8403,16.8795,-0.00017865,-0.00025592,0.0,0 STARLINK-3549,1 51891U 22022AR  22112.91667824 -.00025592  00000-0 -17865-3 0  9998,2 51891  53.2122 255.1541 0001824  30.8403  16.8795 15.73175323  9188,6727.965999999999,91.535,351.05800000000005,348.603,0.0
51891.0,STARLINK-3549,PAYLOAD,2022-04-23 14:00:01,15.73172116,0.0001792,53.2123,251.8546,36.1091,189.36,0.00036691,0.00051127,0.0,0 STARLINK-3549,1 51891U 22022AR  22113.58334491  .00051127  00000-0  36691-3 0  9992,2 51891  53.2123 251.8546 0001792  36.1091 189.3600 15.73172116  9293,6727.975,91.535,351.045,348.634,0.0
51891.0,STARLINK-3549,PAYLOAD,2022-04-24 14:00:01,15.73239067,0.0001999,53.2124,246.9054,30.602,101.7364,-0.00033843,-0.00047931,0.0,0 STARLINK-3549,1 51891U 22022AR  22114.58334491 -.00047931  00000-0 -33843-3 0  9999,2 51891  53.2124 246.9054 0001999  30.6020 101.7364 15.73239067  9444,6727.784000000002,91.531,350.994,348.30400000000014,0.0
51891.0,STARLINK-3549,PAYLOAD,2022-04-25 14:00:01,15.73175251,0.0002032,53.2122,241.9566,28.1104,11.0113,-9.1679e-05,-0.00013454,0.0,0 STARLINK-3549,1 51891U 22022AR  22115.58334491 -.00013454  00000-0 -91679-4 0  9995,2 51891  53.2122 241.9566 0002032  28.1104  11.0113 15.73175251  9606,6727.965999999999,91.535,351.1980000000001,348.464,0.0
51891.0,STARLINK-3549,PAYLOAD,2022-04-25 22:00:00,15.732053099999998,0.0002135,53.2122,240.3071,22.1995,105.8004,0.00010087,0.00013562,0.0,0 STARLINK-3549,1 51891U 22022AR  22115.91667824  .00013562  00000-0  10087-3 0  9992,2 51891  53.2122 240.3071 0002135  22.1995 105.8004 15.73205310  3702,6727.88,91.533,351.181,348.309,0.0
51891.0,STARLINK-3549,PAYLOAD,2022-04-26 06:00:00,15.73169142,0.0001959,53.2125,238.6553,21.1889,195.7667,0.00064117,0.00090219,0.0,0 STARLINK-3549,1 51891U 22022AR  22116.25001157  .00090219  00000-0  64117-3 0  9998,2 51891  53.2125 238.6553 0001959  21.1889 195.7667 15.73169142  9716,6727.983,91.535,351.166,348.53,0.0
51891.0,STARLINK-3549,PAYLOAD,2022-04-26 14:00:01,15.7325185,0.0002234,53.2127,237.0075,20.6587,285.2703,-0.00029495,-0.00041907,0.0,0 STARLINK-3549,1 51891U 22022AR  22116.58335648 -.00041907  00000-0 -29495-3 0  9991,2 51891  53.2127 237.0075 0002234  20.6587 285.2703 15.73251850  9765,6727.746999999999,91.53,351.115,348.1090000000001,0.0
51891.0,STARLINK-3549,PAYLOAD,2022-04-26 22:00:00,15.73298451,0.0002468,53.2137,235.3514,20.7328,14.0944,-0.0016975,-0.00233403,0.0,0 STARLINK-3549,1 51891U 22022AR  22116.91667824 -.00233403  00000-0 -16975-2 0  9994,2 51891  53.2137 235.3514 0002468  20.7328  14.0944 15.73298451  3675,6727.615,91.527,351.14,347.819,0.0
51891.0,STARLINK-3549,PAYLOAD,2022-04-27 14:00:01,15.73179001,0.0002435,53.2127,232.0586,23.3857,189.3878,0.00042438,0.00059311,0.0,0 STARLINK-3549,1 51891U 22022AR  22117.58335648  .00059311  00000-0  42438-3 0  9990,2 51891  53.2127 232.0586 0002435  23.3857 189.3878 15.73179001  9922,6727.955,91.534,351.458,348.182,0.0
51891.0,STARLINK-3549,PAYLOAD,2022-04-28 06:00:00,15.73164167,0.000226,53.2133,228.7572,15.962,14.6586,0.0007962,0.00112462,0.0,0 STARLINK-3549,1 51891U 22022AR  22118.25001157  .00112462  00000-0  79620-3 0  9990,2 51891  53.2133 228.7572 0002260  15.9620  14.6586 15.73164167 10023,6727.996999999999,91.535,351.3830000000001,348.342,0.0
51891.0,STARLINK-3549,PAYLOAD,2022-04-28 14:00:01,15.73266402,0.0002593,53.2133,227.1096,15.5362,104.005,-0.00013408,-0.00019453,0.0,0 STARLINK-3549,1 51891U 22022AR  22118.58334491 -.00019453  00000-0 -13408-3 0  9996,2 51891  53.2133 227.1096 0002593  15.5362 104.0050 15.73266402  3662,6727.706,91.529,351.315,347.826,0.0
51891.0,STARLINK-3549,PAYLOAD,2022-04-28 20:00:01,15.73267645,0.0002684,53.213,225.8724,13.9897,82.3023,-0.00028321,-0.00040302,0.0,0 STARLINK-3549,1 51891U 22022AR  22118.83334491 -.00040302  00000-0 -28321-3 0  9991,2 51891  53.2130 225.8724 0002684  13.9897  82.3023 15.73267645 10114,6727.7019999999975,91.529,351.37300000000016,347.76199999999994,0.0
